start=new Date('2022-09-03T00:00:00.000Z').valueOf();
sats=[{"APOAPSIS":"365.550","TIME_SYSTEM":"UTC","PERIOD":"91.838","RCS_SIZE":"LARGE","ARG_OF_PERICENTER":"72.9676","OBJECT_ID":"2022-086M","OBJECT_NAME":"STARLINK-4133","INCLINATION":"53.2177","MEAN_MOTION_DDOT":"0.0000000000000","LAUNCH_DATE":"2022-07-24","ELEMENT_SET_NO":"999","BSTAR":"-0.01035700000000","SEMIMAJOR_AXIS":"6742.844","FILE":"3555599","EPHEMERIS_TYPE":"0","SITE":"AFETR","MEAN_MOTION_DOT":"-0.01049497","NORAD_CAT_ID":"53253","MEAN_ELEMENT_THEORY":"SGP4","EPOCH":"2022-09-02T22:00:01.999584","CLASSIFICATION_TYPE":"U","ECCENTRICITY":"0.00012470","TLE_LINE2":"2 53253  53.2177 203.5161 0001247  72.9676 111.9747 15.67971165  1306","PERIAPSIS":"363.868","REV_AT_EPOCH":"130","OBJECT_TYPE":"PAYLOAD","GP_ID":"211591903","COUNTRY_CODE":"US","MEAN_ANOMALY":"111.9747","RA_OF_ASC_NODE":"203.5161","DECAY_DATE":null,"REF_FRAME":"TEME","TLE_LINE1":"1 53253U 22086M   22245.91668981 -.01049497  00000-0 -10357-1 0  9992","CENTER_NAME":"EARTH","MEAN_MOTION":"15.67971165"},{"MEAN_MOTION_DDOT":"0.0000000000000","ELEMENT_SET_NO":"999","LAUNCH_DATE":"2022-07-24","BSTAR":"-0.01036100000000","SEMIMAJOR_AXIS":"6742.884","APOAPSIS":"365.628","TIME_SYSTEM":"UTC","PERIOD":"91.839","RCS_SIZE":"LARGE","ARG_OF_PERICENTER":"64.9524","OBJECT_ID":"2022-086N","OBJECT_NAME":"STARLINK-4134","INCLINATION":"53.2177","REV_AT_EPOCH":"130","PERIAPSIS":"363.870","GP_ID":"211592741","OBJECT_TYPE":"PAYLOAD","COUNTRY_CODE":"US","MEAN_ANOMALY":"118.6873","DECAY_DATE":null,"RA_OF_ASC_NODE":"203.5108","REF_FRAME":"TEME","TLE_LINE1":"1 53254U 22086N   22245.91668981 -.01049340  00000-0 -10361-1 0  9995","CENTER_NAME":"EARTH","MEAN_MOTION":"15.67957238","FILE":"3555599","EPHEMERIS_TYPE":"0","SITE":"AFETR","MEAN_MOTION_DOT":"-0.01049340","EPOCH":"2022-09-02T22:00:01.999584","MEAN_ELEMENT_THEORY":"SGP4","NORAD_CAT_ID":"53254","CLASSIFICATION_TYPE":"U","ECCENTRICITY":"0.00013040","TLE_LINE2":"2 53254  53.2177 203.5108 0001304  64.9524 118.6873 15.67957238  1304"},{"MEAN_MOTION":"15.67985792","CENTER_NAME":"EARTH","REF_FRAME":"TEME","TLE_LINE1":"1 53255U 22086P   22245.91668981 -.01050824  00000-0 -10366-1 0  9990","RA_OF_ASC_NODE":"203.5210","DECAY_DATE":null,"MEAN_ANOMALY":"117.0511","COUNTRY_CODE":"US","GP_ID":"211592461","OBJECT_TYPE":"PAYLOAD","PERIAPSIS":"363.947","REV_AT_EPOCH":"130","TLE_LINE2":"2 53255  53.2177 203.5210 0001068  69.1933 117.0511 15.67985792  1305","ECCENTRICITY":"0.00010680","CLASSIFICATION_TYPE":"U","EPOCH":"2022-09-02T22:00:01.999584","MEAN_ELEMENT_THEORY":"SGP4","NORAD_CAT_ID":"53255","MEAN_MOTION_DOT":"-0.01050824","SITE":"AFETR","EPHEMERIS_TYPE":"0","FILE":"3555599","SEMIMAJOR_AXIS":"6742.802","BSTAR":"-0.01036600000000","LAUNCH_DATE":"2022-07-24","ELEMENT_SET_NO":"999","MEAN_MOTION_DDOT":"0.0000000000000","INCLINATION":"53.2177","OBJECT_ID":"2022-086P","OBJECT_NAME":"STARLINK-4142","ARG_OF_PERICENTER":"69.1933","RCS_SIZE":"LARGE","PERIOD":"91.838","TIME_SYSTEM":"UTC","APOAPSIS":"365.387"},{"FILE":"3555599","EPHEMERIS_TYPE":"0","SITE":"AFETR","MEAN_MOTION_DOT":"-0.01049502","NORAD_CAT_ID":"53256","EPOCH":"2022-09-02T22:00:01.999584","MEAN_ELEMENT_THEORY":"SGP4","CLASSIFICATION_TYPE":"U","ECCENTRICITY":"0.00012680","TLE_LINE2":"2 53256  53.2177 203.5181 0001268  70.9463 114.6472 15.67978103  1300","PERIAPSIS":"363.834","REV_AT_EPOCH":"130","GP_ID":"211592181","OBJECT_TYPE":"PAYLOAD","COUNTRY_CODE":"US","MEAN_ANOMALY":"114.6472","DECAY_DATE":null,"RA_OF_ASC_NODE":"203.5181","REF_FRAME":"TEME","TLE_LINE1":"1 53256U 22086Q   22245.91668981 -.01049502  00000-0 -10354-1 0  9999","CENTER_NAME":"EARTH","MEAN_MOTION":"15.67978103","APOAPSIS":"365.544","TIME_SYSTEM":"UTC","PERIOD":"91.838","RCS_SIZE":"LARGE","ARG_OF_PERICENTER":"70.9463","OBJECT_NAME":"STARLINK-4147","OBJECT_ID":"2022-086Q","INCLINATION":"53.2177","MEAN_MOTION_DDOT":"0.0000000000000","ELEMENT_SET_NO":"999","LAUNCH_DATE":"2022-07-24","BSTAR":"-0.01035400000000","SEMIMAJOR_AXIS":"6742.824"},{"ELEMENT_SET_NO":"999","LAUNCH_DATE":"2022-07-24","MEAN_MOTION_DDOT":"0.0000000000000","SEMIMAJOR_AXIS":"6742.745","BSTAR":"-0.01034200000000","ARG_OF_PERICENTER":"70.9793","RCS_SIZE":"LARGE","TIME_SYSTEM":"UTC","APOAPSIS":"365.464","PERIOD":"91.836","INCLINATION":"53.2178","OBJECT_NAME":"STARLINK-4144","OBJECT_ID":"2022-086R","MEAN_ANOMALY":"117.2182","DECAY_DATE":null,"RA_OF_ASC_NODE":"203.5282","COUNTRY_CODE":"US","REV_AT_EPOCH":"130","PERIAPSIS":"363.756","OBJECT_TYPE":"PAYLOAD","GP_ID":"211592316","MEAN_MOTION":"15.68005772","CENTER_NAME":"EARTH","REF_FRAME":"TEME","TLE_LINE1":"1 53257U 22086R   22245.91668981 -.01049483  00000-0 -10342-1 0  9995","SITE":"AFETR","FILE":"3555599","EPHEMERIS_TYPE":"0","TLE_LINE2":"2 53257  53.2178 203.5282 0001266  70.9793 117.2182 15.68005772  1309","CLASSIFICATION_TYPE":"U","ECCENTRICITY":"0.00012660","MEAN_ELEMENT_THEORY":"SGP4","NORAD_CAT_ID":"53257","EPOCH":"2022-09-02T22:00:01.999584","MEAN_MOTION_DOT":"-0.01049483"},{"OBJECT_TYPE":"PAYLOAD","GP_ID":"211592919","REV_AT_EPOCH":"130","PERIAPSIS":"363.816","DECAY_DATE":null,"RA_OF_ASC_NODE":"203.5230","MEAN_ANOMALY":"108.0178","COUNTRY_CODE":"US","CENTER_NAME":"EARTH","TLE_LINE1":"1 53258U 22086S   22245.91668981 -.01049667  00000-0 -10350-1 0  9999","REF_FRAME":"TEME","MEAN_MOTION":"15.67992025","SITE":"AFETR","EPHEMERIS_TYPE":"0","FILE":"3555599","EPOCH":"2022-09-02T22:00:01.999584","MEAN_ELEMENT_THEORY":"SGP4","NORAD_CAT_ID":"53258","MEAN_MOTION_DOT":"-0.01049667","TLE_LINE2":"2 53258  53.2177 203.5230 0001236  78.8779 108.0178 15.67992025  1308","ECCENTRICITY":"0.00012360","CLASSIFICATION_TYPE":"U","MEAN_MOTION_DDOT":"0.0000000000000","ELEMENT_SET_NO":"999","LAUNCH_DATE":"2022-07-24","SEMIMAJOR_AXIS":"6742.784","BSTAR":"-0.01035000000000","RCS_SIZE":"LARGE","PERIOD":"91.837","APOAPSIS":"365.483","TIME_SYSTEM":"UTC","ARG_OF_PERICENTER":"78.8779","OBJECT_ID":"2022-086S","OBJECT_NAME":"STARLINK-4127","INCLINATION":"53.2177"},{"MEAN_MOTION":"15.68012694","CENTER_NAME":"EARTH","TLE_LINE1":"1 53259U 22086T   22245.91668981 -.01049559  00000-0 -10340-1 0  9999","REF_FRAME":"TEME","MEAN_ANOMALY":"110.2126","RA_OF_ASC_NODE":"203.5297","DECAY_DATE":null,"COUNTRY_CODE":"US","PERIAPSIS":"363.758","REV_AT_EPOCH":"130","OBJECT_TYPE":"PAYLOAD","GP_ID":"211592048","TLE_LINE2":"2 53259  53.2178 203.5297 0001234  78.6358 110.2126 15.68012694  1306","CLASSIFICATION_TYPE":"U","ECCENTRICITY":"0.00012340","NORAD_CAT_ID":"53259","EPOCH":"2022-09-02T22:00:01.999584","MEAN_ELEMENT_THEORY":"SGP4","MEAN_MOTION_DOT":"-0.01049559","SITE":"AFETR","FILE":"3555599","EPHEMERIS_TYPE":"0","SEMIMAJOR_AXIS":"6742.725","BSTAR":"-0.01034000000000","LAUNCH_DATE":"2022-07-24","ELEMENT_SET_NO":"999","MEAN_MOTION_DDOT":"0.0000000000000","INCLINATION":"53.2178","OBJECT_ID":"2022-086T","OBJECT_NAME":"STARLINK-4140","ARG_OF_PERICENTER":"78.6358","RCS_SIZE":"LARGE","APOAPSIS":"365.422","TIME_SYSTEM":"UTC","PERIOD":"91.836"},{"ARG_OF_PERICENTER":"80.1309","PERIOD":"91.837","APOAPSIS":"365.458","TIME_SYSTEM":"UTC","RCS_SIZE":"LARGE","INCLINATION":"53.2178","OBJECT_NAME":"STARLINK-4136","OBJECT_ID":"2022-086U","LAUNCH_DATE":"2022-07-24","ELEMENT_SET_NO":"999","MEAN_MOTION_DDOT":"0.0000000000000","BSTAR":"-0.01034600000000","SEMIMAJOR_AXIS":"6742.765","EPHEMERIS_TYPE":"0","FILE":"3555599","SITE":"AFETR","ECCENTRICITY":"0.00012290","CLASSIFICATION_TYPE":"U","TLE_LINE2":"2 53260  53.2178 203.5255 0001229  80.1309 107.4157 15.67998916  1301","MEAN_MOTION_DOT":"-0.01049568","MEAN_ELEMENT_THEORY":"SGP4","EPOCH":"2022-09-02T22:00:01.999584","NORAD_CAT_ID":"53260","COUNTRY_CODE":"US","DECAY_DATE":null,"RA_OF_ASC_NODE":"203.5255","MEAN_ANOMALY":"107.4157","OBJECT_TYPE":"PAYLOAD","GP_ID":"211592595","REV_AT_EPOCH":"130","PERIAPSIS":"363.801","MEAN_MOTION":"15.67998916","REF_FRAME":"TEME","TLE_LINE1":"1 53260U 22086U   22245.91668981 -.01049568  00000-0 -10346-1 0  9997","CENTER_NAME":"EARTH"},{"MEAN_MOTION_DDOT":"0.0000000000000","ELEMENT_SET_NO":"999","LAUNCH_DATE":"2022-07-24","SEMIMAJOR_AXIS":"6742.837","BSTAR":"-0.00954460000000","RCS_SIZE":"LARGE","PERIOD":"91.838","APOAPSIS":"366.990","TIME_SYSTEM":"UTC","ARG_OF_PERICENTER":"289.1800","OBJECT_NAME":"STARLINK-4062","OBJECT_ID":"2022-086V","INCLINATION":"53.2173","OBJECT_TYPE":"PAYLOAD","GP_ID":"211591904","PERIAPSIS":"362.413","REV_AT_EPOCH":"130","DECAY_DATE":null,"RA_OF_ASC_NODE":"203.5346","MEAN_ANOMALY":"261.6524","COUNTRY_CODE":"US","CENTER_NAME":"EARTH","TLE_LINE1":"1 53261U 22086V   22245.91668981 -.00975748  00000-0 -95446-2 0  9990","REF_FRAME":"TEME","MEAN_MOTION":"15.67973789","SITE":"AFETR","EPHEMERIS_TYPE":"0","FILE":"3555599","NORAD_CAT_ID":"53261","EPOCH":"2022-09-02T22:00:01.999584","MEAN_ELEMENT_THEORY":"SGP4","MEAN_MOTION_DOT":"-0.00975748","TLE_LINE2":"2 53261  53.2173 203.5346 0003394 289.1800 261.6524 15.67973789  1302","ECCENTRICITY":"0.00033940","CLASSIFICATION_TYPE":"U"},{"ARG_OF_PERICENTER":"68.9977","APOAPSIS":"365.185","TIME_SYSTEM":"UTC","PERIOD":"91.831","RCS_SIZE":"LARGE","INCLINATION":"53.2173","OBJECT_NAME":"STARLINK-4085","OBJECT_ID":"2022-086W","LAUNCH_DATE":"2022-07-24","ELEMENT_SET_NO":"999","MEAN_MOTION_DDOT":"0.0000000000000","BSTAR":"-0.01130400000000","SEMIMAJOR_AXIS":"6742.499","FILE":"3555599","EPHEMERIS_TYPE":"0","SITE":"AFETR","CLASSIFICATION_TYPE":"U","ECCENTRICITY":"0.00012170","TLE_LINE2":"2 53262  53.2173 203.5298 0001217  68.9977 120.4630 15.68091601  1304","MEAN_MOTION_DOT":"-0.01159043","NORAD_CAT_ID":"53262","EPOCH":"2022-09-02T22:00:01.999584","MEAN_ELEMENT_THEORY":"SGP4","COUNTRY_CODE":"US","MEAN_ANOMALY":"120.4630","DECAY_DATE":null,"RA_OF_ASC_NODE":"203.5298","REV_AT_EPOCH":"130","PERIAPSIS":"363.543","OBJECT_TYPE":"PAYLOAD","GP_ID":"211592742","MEAN_MOTION":"15.68091601","TLE_LINE1":"1 53262U 22086W   22245.91668981 -.01159043  00000-0 -11304-1 0  9994","REF_FRAME":"TEME","CENTER_NAME":"EARTH"}];
